[{"OBJECT_NAME":"STARLINK-3638","OBJECT_ID":"2022-017U","EPOCH":"2026-03-09T22:07:14.121408","MEAN_MOTION":15.08817254,"ECCENTRICITY":0.00014038,"INCLINATION":53.2192,"RA_OF_ASC_NODE":348.0787,"ARG_OF_PERICENTER":107.8319,"MEAN_ANOMALY":252.2826,"EPHEMERIS_TYPE":0,"CLASSIFICATION_TYPE":"U","NORAD_CAT_ID":51786,"ELEMENT_SET_NO":999,"REV_AT_EPOCH":22231,"BSTAR":0.00017953378,"MEAN_MOTION_DOT":2.569e-5,"MEAN_MOTION_DDOT":0},{"OBJECT_NAME":"LEMUR-2-LANGER2SPACE","OBJECT_ID":"2025-061H","EPOCH":"2026-03-09T22:29:21.653952","MEAN_MOTION":15.13463796,"ECCENTRICITY":0.00153346,"INCLINATION":97.5541,"RA_OF_ASC_NODE":45.3892,"ARG_OF_PERICENTER":237.418,"MEAN_ANOMALY":122.5571,"EPHEMERIS_TYPE":0,"CLASSIFICATION_TYPE":"U","NORAD_CAT_ID":63358,"ELEMENT_SET_NO":999,"REV_AT_EPOCH":5260,"BSTAR":0.00035148431,"MEAN_MOTION_DOT":6.238e-5,"MEAN_MOTION_DDOT":0}]
